start=new Date('2021-08-23T00:00:00.000Z').valueOf();
sats=[{"TLE_LINE2":"2 48324  53.0583 353.2817 0001173 124.5285 235.5815 15.06388635 17838","MEAN_MOTION_DOT":"-0.00000947","RCS_SIZE":"LARGE","ELEMENT_SET_NO":"999","GP_ID":"183273365","OBJECT_ID":"2021-036BA","DECAY_DATE":null,"REV_AT_EPOCH":"1783","MEAN_ANOMALY":"235.5815","EPHEMERIS_TYPE":"0","COUNTRY_CODE":"US","MEAN_MOTION":"15.06388635","SEMIMAJOR_AXIS":"6925.383","TLE_LINE1":"1 48324U 21036BA  21234.77030008 -.00000947  00000-0 -44708-4 0  9999","CENTER_NAME":"EARTH","BSTAR":"-0.00004470800000","PERIAPSIS":"546.436","INCLINATION":"53.0583","ARG_OF_PERICENTER":"124.5285","OBJECT_NAME":"STARLINK-2527","NORAD_CAT_ID":"48324","OBJECT_TYPE":"PAYLOAD","TIME_SYSTEM":"UTC","APOAPSIS":"548.061","RA_OF_ASC_NODE":"353.2817","MEAN_ELEMENT_THEORY":"SGP4","PERIOD":"95.593","EPOCH":"2021-08-22T18:29:13.926912","SITE":"AFETR","REF_FRAME":"TEME","MEAN_MOTION_DDOT":"0.0000000000000","FILE":"3101563","CLASSIFICATION_TYPE":"U","LAUNCH_DATE":"2021-04-29","ECCENTRICITY":"0.00011730"},{"MEAN_ANOMALY":"223.4701","REV_AT_EPOCH":"1783","EPHEMERIS_TYPE":"0","COUNTRY_CODE":"US","DECAY_DATE":null,"OBJECT_ID":"2021-036BB","GP_ID":"183273539","TLE_LINE2":"2 48325  53.0575 353.5936 0001110 136.6376 223.4701 15.06391559 17830","MEAN_MOTION_DOT":"-0.00000801","RCS_SIZE":"LARGE","ELEMENT_SET_NO":"999","PERIAPSIS":"546.471","BSTAR":"-0.00003491300000","INCLINATION":"53.0575","CENTER_NAME":"EARTH","TLE_LINE1":"1 48325U 21036BB  21234.70026542 -.00000801  00000-0 -34913-4 0  9997","MEAN_MOTION":"15.06391559","SEMIMAJOR_AXIS":"6925.374","RA_OF_ASC_NODE":"353.5936","PERIOD":"95.593","MEAN_ELEMENT_THEORY":"SGP4","OBJECT_TYPE":"PAYLOAD","TIME_SYSTEM":"UTC","APOAPSIS":"548.008","ARG_OF_PERICENTER":"136.6376","NORAD_CAT_ID":"48325","OBJECT_NAME":"STARLINK-2495","CLASSIFICATION_TYPE":"U","ECCENTRICITY":"0.00011100","LAUNCH_DATE":"2021-04-29","FILE":"3101563","SITE":"AFETR","EPOCH":"2021-08-22T16:48:22.932288","REF_FRAME":"TEME","MEAN_MOTION_DDOT":"0.0000000000000"},{"GP_ID":"183273630","OBJECT_ID":"2021-036BC","MEAN_MOTION_DOT":"-0.00000689","TLE_LINE2":"2 48326  53.0564 353.0070 0001040 118.4120 241.6974 15.06398928 17853","ELEMENT_SET_NO":"999","RCS_SIZE":"LARGE","REV_AT_EPOCH":"1785","MEAN_ANOMALY":"241.6974","COUNTRY_CODE":"US","EPHEMERIS_TYPE":"0","DECAY_DATE":null,"TLE_LINE1":"1 48326U 21036BC  21234.82926586 -.00000689  00000-0 -27406-4 0  9991","MEAN_MOTION":"15.06398928","SEMIMAJOR_AXIS":"6925.352","PERIAPSIS":"546.497","INCLINATION":"53.0564","BSTAR":"-0.00002740600000","CENTER_NAME":"EARTH","TIME_SYSTEM":"UTC","OBJECT_TYPE":"PAYLOAD","APOAPSIS":"547.937","ARG_OF_PERICENTER":"118.4120","NORAD_CAT_ID":"48326","OBJECT_NAME":"STARLINK-2498","RA_OF_ASC_NODE":"353.0070","MEAN_ELEMENT_THEORY":"SGP4","PERIOD":"95.592","FILE":"3101563","EPOCH":"2021-08-22T19:54:08.570304","SITE":"AFETR","MEAN_MOTION_DDOT":"0.0000000000000","REF_FRAME":"TEME","CLASSIFICATION_TYPE":"U","LAUNCH_DATE":"2021-04-29","ECCENTRICITY":"0.00010400"},{"REF_FRAME":"TEME","MEAN_MOTION_DDOT":"0.0000000000000","SITE":"AFETR","EPOCH":"2021-08-22T19:48:50.499072","FILE":"3101563","ECCENTRICITY":"0.00015490","LAUNCH_DATE":"2021-04-29","CLASSIFICATION_TYPE":"U","NORAD_CAT_ID":"48327","OBJECT_NAME":"STARLINK-2502","ARG_OF_PERICENTER":"128.5677","APOAPSIS":"548.322","OBJECT_TYPE":"PAYLOAD","TIME_SYSTEM":"UTC","PERIOD":"95.593","MEAN_ELEMENT_THEORY":"SGP4","RA_OF_ASC_NODE":"353.0230","SEMIMAJOR_AXIS":"6925.385","MEAN_MOTION":"15.06388224","TLE_LINE1":"1 48327U 21036BD  21234.82558448 -.00000003  00000-0  18713-4 0  9990","CENTER_NAME":"EARTH","PERIAPSIS":"546.177","BSTAR":"0.00001871300000","INCLINATION":"53.0562","RCS_SIZE":"LARGE","ELEMENT_SET_NO":"999","TLE_LINE2":"2 48327  53.0562 353.0230 0001549 128.5677 231.5451 15.06388224 17859","MEAN_MOTION_DOT":"-0.00000003","OBJECT_ID":"2021-036BD","GP_ID":"183273450","DECAY_DATE":null,"COUNTRY_CODE":"US","EPHEMERIS_TYPE":"0","MEAN_ANOMALY":"231.5451","REV_AT_EPOCH":"1785"},{"COUNTRY_CODE":"US","EPHEMERIS_TYPE":"0","REV_AT_EPOCH":"1785","MEAN_ANOMALY":"244.9599","DECAY_DATE":null,"GP_ID":"183273720","OBJECT_ID":"2021-036BE","RCS_SIZE":"LARGE","ELEMENT_SET_NO":"999","MEAN_MOTION_DOT":"-0.00000849","TLE_LINE2":"2 48328  53.0564 353.0406 0001066 115.1500 244.9599 15.06388992 17851","PERIAPSIS":"546.509","BSTAR":"-0.00003810600000","INCLINATION":"53.0564","CENTER_NAME":"EARTH","TLE_LINE1":"1 48328U 21036BE  21234.82190133 -.00000849  00000-0 -38106-4 0  9991","SEMIMAJOR_AXIS":"6925.382","MEAN_MOTION":"15.06388992","MEAN_ELEMENT_THEORY":"SGP4","PERIOD":"95.593","RA_OF_ASC_NODE":"353.0406","APOAPSIS":"547.986","TIME_SYSTEM":"UTC","OBJECT_TYPE":"PAYLOAD","NORAD_CAT_ID":"48328","OBJECT_NAME":"STARLINK-2504","ARG_OF_PERICENTER":"115.1500","LAUNCH_DATE":"2021-04-29","ECCENTRICITY":"0.00010660","CLASSIFICATION_TYPE":"U","FILE":"3101563","MEAN_MOTION_DDOT":"0.0000000000000","REF_FRAME":"TEME","EPOCH":"2021-08-22T19:43:32.274912","SITE":"AFETR"},{"FILE":"3101563","SITE":"AFETR","EPOCH":"2021-08-22T19:38:13.788096","REF_FRAME":"TEME","MEAN_MOTION_DDOT":"0.0000000000000","CLASSIFICATION_TYPE":"U","ECCENTRICITY":"0.00009230","LAUNCH_DATE":"2021-04-29","TIME_SYSTEM":"UTC","OBJECT_TYPE":"PAYLOAD","APOAPSIS":"547.891","ARG_OF_PERICENTER":"117.2936","OBJECT_NAME":"STARLINK-2510","NORAD_CAT_ID":"48329","RA_OF_ASC_NODE":"353.0592","PERIOD":"95.593","MEAN_ELEMENT_THEORY":"SGP4","TLE_LINE1":"1 48329U 21036BF  21234.81821514 -.00000747  00000-0 -31276-4 0  9993","MEAN_MOTION":"15.06387637","SEMIMAJOR_AXIS":"6925.386","BSTAR":"-0.00003127600000","PERIAPSIS":"546.612","INCLINATION":"53.0568","CENTER_NAME":"EARTH","OBJECT_ID":"2021-036BF","GP_ID":"183273186","TLE_LINE2":"2 48329  53.0568 353.0592 0000923 117.2936 242.8147 15.06387637 17850","MEAN_MOTION_DOT":"-0.00000747","ELEMENT_SET_NO":"999","RCS_SIZE":"LARGE","MEAN_ANOMALY":"242.8147","REV_AT_EPOCH":"1785","EPHEMERIS_TYPE":"0","COUNTRY_CODE":"US","DECAY_DATE":null},{"ARG_OF_PERICENTER":"123.2234","OBJECT_NAME":"STARLINK-2501","NORAD_CAT_ID":"48330","OBJECT_TYPE":"PAYLOAD","TIME_SYSTEM":"UTC","APOAPSIS":"548.082","RA_OF_ASC_NODE":"353.0788","PERIOD":"95.592","MEAN_ELEMENT_THEORY":"SGP4","SITE":"AFETR","EPOCH":"2021-08-22T19:32:54.750912","MEAN_MOTION_DDOT":"0.0000000000000","REF_FRAME":"TEME","FILE":"3101563","CLASSIFICATION_TYPE":"U","ECCENTRICITY":"0.00012380","LAUNCH_DATE":"2021-04-29","MEAN_MOTION_DOT":"-0.00000903","TLE_LINE2":"2 48330  53.0571 353.0788 0001238 123.2234 236.8874 15.06396262 17855","ELEMENT_SET_NO":"999","RCS_SIZE":"LARGE","OBJECT_ID":"2021-036BG","GP_ID":"183273276","DECAY_DATE":null,"MEAN_ANOMALY":"236.8874","REV_AT_EPOCH":"1785","EPHEMERIS_TYPE":"0","COUNTRY_CODE":"US","MEAN_MOTION":"15.06396262","SEMIMAJOR_AXIS":"6925.360","TLE_LINE1":"1 48330U 21036BG  21234.81452258 -.00000903  00000-0 -41723-4 0  9992","CENTER_NAME":"EARTH","BSTAR":"-0.00004172300000","PERIAPSIS":"546.368","INCLINATION":"53.0571"},{"OBJECT_ID":"2021-036BH","GP_ID":"183273096","RCS_SIZE":"LARGE","ELEMENT_SET_NO":"999","TLE_LINE2":"2 48331  53.0568 353.0921 0001114 131.4053 228.7032 15.06398301 17856","MEAN_MOTION_DOT":"0.00000957","COUNTRY_CODE":"US","EPHEMERIS_TYPE":"0","MEAN_ANOMALY":"228.7032","REV_AT_EPOCH":"1785","DECAY_DATE":null,"TLE_LINE1":"1 48331U 21036BH  21234.81083334  .00000957  00000-0  83096-4 0  9994","SEMIMAJOR_AXIS":"6925.354","MEAN_MOTION":"15.06398301","PERIAPSIS":"546.447","INCLINATION":"53.0568","BSTAR":"0.00008309600000","CENTER_NAME":"EARTH","APOAPSIS":"547.990","OBJECT_TYPE":"PAYLOAD","TIME_SYSTEM":"UTC","NORAD_CAT_ID":"48331","OBJECT_NAME":"STARLINK-2514","ARG_OF_PERICENTER":"131.4053","PERIOD":"95.592","MEAN_ELEMENT_THEORY":"SGP4","RA_OF_ASC_NODE":"353.0921","FILE":"3101563","REF_FRAME":"TEME","MEAN_MOTION_DDOT":"0.0000000000000","SITE":"AFETR","EPOCH":"2021-08-22T19:27:36.000576","ECCENTRICITY":"0.00011140","LAUNCH_DATE":"2021-04-29","CLASSIFICATION_TYPE":"U"},{"MEAN_MOTION":"15.06392911","SEMIMAJOR_AXIS":"6925.370","TLE_LINE1":"1 48332U 21036BJ  21234.80715722 -.00000902  00000-0 -41665-4 0  9995","CENTER_NAME":"EARTH","BSTAR":"-0.00004166500000","PERIAPSIS":"546.490","INCLINATION":"53.0566","TLE_LINE2":"2 48332  53.0566 353.1107 0001076 127.1155 232.9933 15.06392911 17852","MEAN_MOTION_DOT":"-0.00000902","RCS_SIZE":"LARGE","ELEMENT_SET_NO":"999","GP_ID":"183273366","OBJECT_ID":"2021-036BJ","DECAY_DATE":null,"REV_AT_EPOCH":"1785","MEAN_ANOMALY":"232.9933","COUNTRY_CODE":"US","EPHEMERIS_TYPE":"0","EPOCH":"2021-08-22T19:22:18.383808","SITE":"AFETR","MEAN_MOTION_DDOT":"0.0000000000000","REF_FRAME":"TEME","FILE":"3101563","CLASSIFICATION_TYPE":"U","LAUNCH_DATE":"2021-04-29","ECCENTRICITY":"0.00010760","ARG_OF_PERICENTER":"127.1155","NORAD_CAT_ID":"48332","OBJECT_NAME":"STARLINK-2511","OBJECT_TYPE":"PAYLOAD","TIME_SYSTEM":"UTC","APOAPSIS":"547.980","RA_OF_ASC_NODE":"353.1107","MEAN_ELEMENT_THEORY":"SGP4","PERIOD":"95.593"},{"ARG_OF_PERICENTER":"124.1003","NORAD_CAT_ID":"48333","OBJECT_NAME":"STARLINK-2518","OBJECT_TYPE":"PAYLOAD","TIME_SYSTEM":"UTC","APOAPSIS":"548.191","RA_OF_ASC_NODE":"353.1269","PERIOD":"95.592","MEAN_ELEMENT_THEORY":"SGP4","SITE":"AFETR","EPOCH":"2021-08-22T19:16:59.719872","REF_FRAME":"TEME","MEAN_MOTION_DDOT":"0.0000000000000","FILE":"3101563","CLASSIFICATION_TYPE":"U","ECCENTRICITY":"0.00013980","LAUNCH_DATE":"2021-04-29","TLE_LINE2":"2 48333  53.0597 353.1269 0001398 124.1003 236.0119 15.06397014 17852","MEAN_MOTION_DOT":"0.00000663","RCS_SIZE":"LARGE","ELEMENT_SET_NO":"999","OBJECT_ID":"2021-036BK","GP_ID":"183273540","DECAY_DATE":null,"MEAN_ANOMALY":"236.0119","REV_AT_EPOCH":"1785","EPHEMERIS_TYPE":"0","COUNTRY_CODE":"US","MEAN_MOTION":"15.06397014","SEMIMAJOR_AXIS":"6925.358","TLE_LINE1":"1 48333U 21036BK  21234.80346898  .00000663  00000-0  63377-4 0  9996","CENTER_NAME":"EARTH","INCLINATION":"53.0597","PERIAPSIS":"546.255","BSTAR":"0.00006337700000"}];
